{
  "type": "FeatureCollection",
  "features": [
    {
      "type": "Feature",
      "properties": {
        "norad_id": 54741,
        "name": "GALAXY 35 (G-35)",
        "group": "intelsat",
        "lat": 0.009091855671589618,
        "lon": 92.75600050374798,
        "alt_km": 35796.95224472485,
        "timestamp": "2025-12-11T07:02:23.401878+00:00",
        "meta_object_name": "GALAXY 35 (G-35)",
        "meta_object_id": "2022-170A",
        "meta_epoch": "2025-12-10T19:56:54.262176",
        "meta_mean_motion": 1.00271253,
        "meta_eccentricity": 0.00025497,
        "meta_inclination": 0.0175,
        "meta_ra_of_asc_node": 263.3792,
        "meta_arg_of_pericenter": 2.0467,
        "meta_mean_anomaly": 20.5117,
        "meta_ephemeris_type": 0,
        "meta_classification_type": "U",
        "meta_norad_cat_id": 54741,
        "meta_element_set_no": 999,
        "meta_rev_at_epoch": 1100,
        "meta_bstar": 0,
        "meta_mean_motion_dot": -1.57e-06,
        "meta_mean_motion_ddot": 0,
        "tle_line1": "1 54741U 22170A   25344.83118359 -.00000157  00000+0  00000+0 0  9991",
        "tle_line2": "2 54741   0.0175 263.3792 0002549   2.0467  20.5117  1.00271253 11006"
      },
      "geometry": {
        "type": "Point",
        "coordinates": [
          92.75600050374798,
          0.009091855671589618
        ]
      }
    },
    {
      "type": "Feature",
      "properties": {
        "norad_id": 54742,
        "name": "GALAXY 36 (G-36)",
        "group": "intelsat",
        "lat": 0.02522625913297169,
        "lon": 96.84756362739529,
        "alt_km": 35787.76154289359,
        "timestamp": "2025-12-11T07:02:23.401890+00:00",
        "meta_object_name": "GALAXY 36 (G-36)",
        "meta_object_id": "2022-170B",
        "meta_epoch": "2025-12-10T19:58:01.654176",
        "meta_mean_motion": 1.00271691,
        "meta_eccentricity": 3.85e-05,
        "meta_inclination": 0.0122,
        "meta_ra_of_asc_node": 26.7159,
        "meta_arg_of_pericenter": 250.6434,
        "meta_mean_anomaly": 12.9469,
        "meta_ephemeris_type": 0,
        "meta_classification_type": "U",
        "meta_norad_cat_id": 54742,
        "meta_element_set_no": 999,
        "meta_rev_at_epoch": 1088,
        "meta_bstar": 0,
        "meta_mean_motion_dot": -1.8e-06,
        "meta_mean_motion_ddot": 0,
        "tle_line1": "1 54742U 22170B   25344.83196359 -.00000180  00000+0  00000+0 0  9994",
        "tle_line2": "2 54742   0.0122  26.7159 0000385 250.6434  12.9469  1.00271691 10884"
      },
      "geometry": {
        "type": "Point",
        "coordinates": [
          96.84756362739529,
          0.02522625913297169
        ]
      }
    },
    {
      "type": "Feature",
      "properties": {
        "norad_id": 57493,
        "name": "GALAXY 37 (G-37)",
        "group": "intelsat",
        "lat": 0.022411428242281352,
        "lon": 58.8682362089731,
        "alt_km": 35794.54797348351,
        "timestamp": "2025-12-11T07:02:23.401901+00:00",
        "meta_object_name": "GALAXY 37 (G-37)",
        "meta_object_id": "2023-112A",
        "meta_epoch": "2025-12-10T18:04:27.532416",
        "meta_mean_motion": 1.0027219,
        "meta_eccentricity": 0.00022775,
        "meta_inclination": 0.0092,
        "meta_ra_of_asc_node": 10.3509,
        "meta_arg_of_pericenter": 255.1161,
        "meta_mean_anomaly": 318.3771,
        "meta_ephemeris_type": 0,
        "meta_classification_type": "U",
        "meta_norad_cat_id": 57493,
        "meta_element_set_no": 999,
        "meta_rev_at_epoch": 865,
        "meta_bstar": 0,
        "meta_mean_motion_dot": 5.3e-07,
        "meta_mean_motion_ddot": 0,
        "tle_line1": "1 57493U 23112A   25344.75309644  .00000053  00000+0  00000+0 0  9999",
        "tle_line2": "2 57493   0.0092  10.3509 0002277 255.1161 318.3771  1.00272190  8659"
      },
      "geometry": {
        "type": "Point",
        "coordinates": [
          58.8682362089731,
          0.022411428242281352
        ]
      }
    }
  ]
}